NORAD_CAT_ID,OBJECT_NAME,OBJECT_TYPE,EPOCH,MEAN_MOTION,ECCENTRICITY,INCLINATION,RA_OF_ASC_NODE,ARG_OF_PERICENTER,MEAN_ANOMALY,BSTAR,MEAN_MOTION_DOT,MEAN_MOTION_DDOT,TLE_LINE0,TLE_LINE1,TLE_LINE2,SEMIMAJOR_AXIS,PERIOD,APOGEE,PERIGEE,DECAYED
55418.0,STARLINK-5030,PAYLOAD,2024-05-20 13:57:05,14.98334933,0.0003132,70.0008,303.7909,265.4321,94.6481,0.0003136,3.651e-05,0.0,0 STARLINK-5030,1 55418U 23014AD  24141.58130921  .00003651  00000-0  31360-3 0  9995,2 55418  70.0008 303.7909 0003132 265.4321  94.6481 14.98334933 72988,6950.178,96.107,574.219,569.866,0.0
55418.0,STARLINK-5030,PAYLOAD,2024-05-20 20:21:37,14.98350209,0.0003231,70.0009,303.1172,264.7792,95.2998,0.0014675,0.0001747,0.0,0 STARLINK-5030,1 55418U 23014AD  24141.84834932  .00017470  00000-0  14675-2 0  9990,2 55418  70.0009 303.1172 0003231 264.7792  95.2998 14.98350209 72084,6950.13,96.106,574.241,569.75,0.0
55418.0,STARLINK-5030,PAYLOAD,2024-05-21 12:22:57,14.98337889,0.0002627,70.0027,301.4364,255.0693,105.0175,0.0002891,3.359e-05,0.0,0 STARLINK-5030,1 55418U 23014AD  24142.51594899  .00003359  00000-0  28910-3 0  9999,2 55418  70.0027 301.4364 0002627 255.0693 105.0175 14.98337889 72186,6950.168,96.106,573.859,570.208,0.0
55418.0,STARLINK-5030,PAYLOAD,2024-05-21 13:59:06,14.98334757,0.0002916,70.0018,301.2674,261.5926,98.4902,0.00030205,3.513e-05,0.0,0 STARLINK-5030,1 55418U 23014AD  24142.58271038  .00003513  00000-0  30205-3 0  9995,2 55418  70.0018 301.2674 0002916 261.5926  98.4902 14.98334757 73130,6950.178,96.107,574.07,570.017,0.0
55418.0,STARLINK-5030,PAYLOAD,2024-05-21 20:23:38,14.9833923,0.0002911,70.0018,300.5943,260.9219,99.1611,0.00030074,3.498e-05,0.0,0 STARLINK-5030,1 55418U 23014AD  24142.84974784  .00003498  00000-0  30074-3 0  9998,2 55418  70.0018 300.5943 0002911 260.9219  99.1611 14.98339230 73174,6950.164,96.106,574.053,570.006,0.0
55418.0,STARLINK-5030,PAYLOAD,2024-05-22 12:24:58,14.9833294,0.0002667,70.0024,298.9127,250.485,109.6021,2.8705e-05,2.5e-06,0.0,0 STARLINK-5030,1 55418U 23014AD  24143.51734885  .00000250  00000-0  28705-4 0  9991,2 55418  70.0024 298.9127 0002667 250.4850 109.6021 14.98332940 72338,6950.184,96.107,573.902,570.195,0.0
55418.0,STARLINK-5030,PAYLOAD,2024-05-22 20:25:39,14.98330856,0.0002687,70.0019,298.0703,255.3538,104.7323,-1.9662e-05,-3.28e-06,0.0,0 STARLINK-5030,1 55418U 23014AD  24143.85115037 -.00000328  00000-0 -19662-4 0  9990,2 55418  70.0019 298.0703 0002687 255.3538 104.7323 14.98330856 73327,6950.19,96.107,573.923,570.188,0.0
55418.0,STARLINK-5030,PAYLOAD,2024-05-23 12:27:00,14.98331901,0.0002702,70.0004,296.3862,260.4299,99.6554,0.00011613,1.293e-05,0.0,0 STARLINK-5030,1 55418U 23014AD  24144.51875051  .00001293  00000-0  11613-3 0  9990,2 55418  70.0004 296.3862 0002702 260.4299  99.6554 14.98331901 72483,6950.187,96.107,573.93,570.174,0.0
55418.0,STARLINK-5030,PAYLOAD,2024-05-23 14:03:08,14.98331893,0.0002706,70.0004,296.2177,260.671,99.4143,0.00011232,1.248e-05,0.0,0 STARLINK-5030,1 55418U 23014AD  24144.58551044  .00001248  00000-0  11232-3 0  9997,2 55418  70.0004 296.2177 0002706 260.6710  99.4143 14.98331893 73433,6950.187,96.107,573.933,570.171,0.0
55418.0,STARLINK-5030,PAYLOAD,2024-05-23 20:27:40,14.98335278,0.0002684,70.0004,295.5438,262.3444,97.741,0.00014269,1.61e-05,0.0,0 STARLINK-5030,1 55418U 23014AD  24144.85254753  .00001610  00000-0  14269-3 0  9990,2 55418  70.0004 295.5438 0002684 262.3444  97.7410 14.98335278 73476,6950.177,96.107,573.907,570.176,0.0
55418.0,STARLINK-5030,PAYLOAD,2024-05-24 12:29:01,14.983273,0.0002638,70.0006,293.8595,257.1755,102.9109,0.00011339,1.26e-05,0.0,0 STARLINK-5030,1 55418U 23014AD  24145.52015240  .00001260  00000-0  11339-3 0  9997,2 55418  70.0006 293.8595 0002638 257.1755 102.9109 14.98327300 72637,6950.201,96.107,573.9,570.233,0.0
55418.0,STARLINK-5030,PAYLOAD,2024-05-24 14:05:09,14.98328179,0.000261,70.0007,293.6912,262.8163,97.2699,0.00010314,1.138e-05,0.0,0 STARLINK-5030,1 55418U 23014AD  24145.58691223  .00001138  00000-0  10314-3 0  9990,2 55418  70.0007 293.6912 0002610 262.8163  97.2699 14.98328179 73585,6950.199,96.107,573.878,570.25,0.0
55418.0,STARLINK-5030,PAYLOAD,2024-05-24 20:29:41,14.98329467,0.00026,70.0007,293.0178,257.0468,103.0401,0.00011846,1.321e-05,0.0,0 STARLINK-5030,1 55418U 23014AD  24145.85395072  .00001321  00000-0  11846-3 0  9998,2 55418  70.0007 293.0178 0002600 257.0468 103.0401 14.98329467 73629,6950.195,96.107,573.867,570.252,0.0
55418.0,STARLINK-5030,PAYLOAD,2024-05-25 12:31:02,14.98328579,0.0002651,70.0003,291.3342,257.1213,102.965,4.2153e-05,4.1e-06,0.0,0 STARLINK-5030,1 55418U 23014AD  24146.52155264  .00000410  00000-0  42153-4 0  9994,2 55418  70.0003 291.3342 0002651 257.1213 102.9650 14.98328579 72787,6950.197,96.107,573.905,570.22,0.0
55418.0,STARLINK-5030,PAYLOAD,2024-05-25 14:07:10,14.98328267,0.0002729,70.0004,291.1659,262.775,97.3099,3.78e-05,3.58e-06,0.0,0 STARLINK-5030,1 55418U 23014AD  24146.58831315  .00000358  00000-0  37800-4 0  9992,2 55418  70.0004 291.1659 0002729 262.7750  97.3099 14.98328267 73735,6950.198,96.107,573.96,570.167,0.0
55418.0,STARLINK-5030,PAYLOAD,2024-05-26 02:56:13,14.98345667,0.000344,69.9992,289.8195,267.2652,92.8114,-5.0428e-05,-6.95e-06,0.0,0 STARLINK-5030,1 55418U 23014AD  24147.12238160 -.00000695  00000-0 -50428-4 0  9999,2 55418  69.9992 289.8195 0003440 267.2652  92.8114 14.98345667 72874,6950.144,96.106,574.4,569.619,0.0
55418.0,STARLINK-5030,PAYLOAD,2024-05-26 12:33:02,14.98331037,0.000347,70.0001,288.8093,273.6717,86.4045,6.9648e-05,7.38e-06,0.0,0 STARLINK-5030,1 55418U 23014AD  24147.52295030  .00000738  00000-0  69648-4 0  9992,2 55418  70.0001 288.8093 0003470 273.6717  86.4045 14.98331037 72935,6950.19,96.107,574.466,569.643,0.0
55418.0,STARLINK-5030,PAYLOAD,2024-05-26 14:09:11,14.98329609,0.0003093,70.0001,288.6411,269.9588,90.1217,9.4446e-05,1.034e-05,0.0,0 STARLINK-5030,1 55418U 23014AD  24147.58971075  .00001034  00000-0  94446-4 0  9992,2 55418  70.0001 288.6411 0003093 269.9588  90.1217 14.98329609 73882,6950.194,96.107,574.209,569.909,0.0
55418.0,STARLINK-5030,PAYLOAD,2024-05-26 18:57:34,14.98333672,0.0003461,70.0002,288.1361,273.8433,86.233,8.5207e-05,9.24e-06,0.0,0 STARLINK-5030,1 55418U 23014AD  24147.78998810  .00000924  00000-0  85207-4 0  9992,2 55418  70.0002 288.1361 0003461 273.8433  86.2330 14.98333672 73915,6950.182,96.107,574.452,569.641,0.0
55418.0,STARLINK-5030,PAYLOAD,2024-05-27 12:35:04,14.9832732,0.0002976,70.0002,286.2848,268.0237,92.0582,3.9339e-05,3.76e-06,0.0,0 STARLINK-5030,1 55418U 23014AD  24148.52435285  .00000376  00000-0  39339-4 0  9993,2 55418  70.0002 286.2848 0002976 268.0237  92.0582 14.98327320 73087,6950.201,96.107,574.135,569.998,0.0
55418.0,STARLINK-5030,PAYLOAD,2024-05-27 14:11:12,14.98327441,0.0002979,70.0002,286.1165,268.0535,92.0283,3.9094e-05,3.73e-06,0.0,0 STARLINK-5030,1 55418U 23014AD  24148.59111285  .00000373  00000-0  39094-4 0  9996,2 55418  70.0002 286.1165 0002979 268.0535  92.0283 14.98327441 74030,6950.201,96.107,574.136,569.995,0.0
55418.0,STARLINK-5030,PAYLOAD,2024-05-27 18:59:36,14.98330681,0.0002984,70.0002,285.6117,267.8605,92.2212,6.9763e-05,7.4e-06,0.0,0 STARLINK-5030,1 55418U 23014AD  24148.79138999  .00000740  00000-0  69763-4 0  9993,2 55418  70.0002 285.6117 0002984 267.8605  92.2212 14.98330681 74069,6950.191,96.107,574.13,569.982,0.0
55418.0,STARLINK-5030,PAYLOAD,2024-05-28 12:37:04,14.98335261,0.0003005,70.0002,283.7603,266.9279,93.1537,5.5436e-05,5.69e-06,0.0,0 STARLINK-5030,1 55418U 23014AD  24149.52574605  .00000569  00000-0  55436-4 0  9994,2 55418  70.0002 283.7603 0003005 266.9279  93.1537 14.98335261 73237,6950.177,96.107,574.13,569.953,0.0
55418.0,STARLINK-5030,PAYLOAD,2024-05-28 14:13:12,14.98336115,0.0002992,70.0003,283.5921,266.8984,93.1832,6.5756e-05,6.92e-06,0.0,0 STARLINK-5030,1 55418U 23014AD  24149.59250504  .00000692  00000-0  65756-4 0  9993,2 55418  70.0003 283.5921 0002992 266.8984  93.1832 14.98336115 74187,6950.174,96.107,574.118,569.959,0.0
55418.0,STARLINK-5030,PAYLOAD,2024-05-28 19:01:36,14.98338674,0.000297,70.0004,283.0875,266.3855,93.6965,9.194e-05,1.004e-05,0.0,0 STARLINK-5030,1 55418U 23014AD  24149.79278187  .00001004  00000-0  91940-4 0  9994,2 55418  70.0004 283.0875 0002970 266.3855  93.6965 14.98338674 74217,6950.166,96.106,574.095,569.967,0.0
55418.0,STARLINK-5030,PAYLOAD,2024-05-29 12:39:05,14.98329461,0.0002924,70.0006,281.2357,266.5305,93.552,4.3895e-05,4.31e-06,0.0,0 STARLINK-5030,1 55418U 23014AD  24150.52714774  .00000431  00000-0  43895-4 0  9993,2 55418  70.0006 281.2357 0002924 266.5305  93.5520 14.98329461 73382,6950.195,96.107,574.092,570.027,0.0
55418.0,STARLINK-5030,PAYLOAD,2024-05-29 14:15:13,14.98329237,0.0002923,70.0006,281.0674,266.3592,93.7232,4.004e-05,3.85e-06,0.0,0 STARLINK-5030,1 55418U 23014AD  24150.59390798  .00000385  00000-0  40040-4 0  9993,2 55418  70.0006 281.0674 0002923 266.3592  93.7232 14.98329237 74336,6950.195,96.107,574.092,570.029,0.0
55418.0,STARLINK-5030,PAYLOAD,2024-05-29 19:03:37,14.98329801,0.0002927,70.0007,280.5625,266.6696,93.4128,4.3257e-05,4.23e-06,0.0,0 STARLINK-5030,1 55418U 23014AD  24150.79418800  .00000423  00000-0  43257-4 0  9996,2 55418  70.0007 280.5625 0002927 266.6696  93.4128 14.98329801 74360,6950.194,96.107,574.093,570.024,0.0
55418.0,STARLINK-5030,PAYLOAD,2024-05-30 12:41:06,14.98336096,0.0002902,70.0008,278.7108,269.2541,90.8286,1.393e-05,7.3e-07,0.0,0 STARLINK-5030,1 55418U 23014AD  24151.52854401  .00000073  00000-0  13930-4 0  9995,2 55418  70.0008 278.7108 0002902 269.2541  90.8286 14.98336096 73535,6950.174,96.107,574.056,570.022,0.0
55418.0,STARLINK-5030,PAYLOAD,2024-05-30 19:05:38,14.98338077,0.0002891,70.0009,278.0375,270.6844,89.3984,3.7031e-05,3.49e-06,0.0,0 STARLINK-5030,1 55418U 23014AD  24151.79558123  .00000349  00000-0  37031-4 0  9990,2 55418  70.0009 278.0375 0002891 270.6844  89.3984 14.98338077 74512,6950.168,96.106,574.042,570.024,0.0
